satname,norad_id,inclination_deg,eccentricity,mean_motion_rev_per_day,perigee_km,apogee_km,l1,l2
STARLINK-1420,45695,53.0471,0.00057,15.6665381,364.6410351418599,372.33218605794355,1 45695U 20035AQ  26146.84403771  .00052962  00000+0  49712-3 0  9991,2 45695  53.0471   1.0553 0005700  97.8637 262.3025 15.66653810331566
STARLINK-1422,45696,53.1581,0.000352,15.33867324,461.87839047739,466.69545691967323,1 45696U 20035AR  26146.96036469  .00054482  00000+0  16391-2 0  9996,2 45696  53.1581  45.3430 0003520 113.3029 246.8344 15.33867324330967
STARLINK-1351,45697,53.0447,0.0005064,15.65114991,369.48933801904695,376.32679646314864,1 45697U 20035AS  26146.85256376  .00048633  00000+0  48623-3 0  9991,2 45697  53.0447   1.2998 0005064 109.4258 250.7304 15.65114991331560
STARLINK-1400,45700,53.044,0.0003291,15.63232083,376.10450156301886,380.55160686170166,1 45700U 20035AV  26146.85603462  .00096726  00000+0  10301-2 0  9995,2 45700  53.0440   3.7247 0003291  64.8753 295.2601 15.63232083331527
STARLINK-1403,45701,53.1562,0.0002777,15.3275354,465.70018481666193,469.502307838673,1 45701U 20035AW  26146.96519096  .00040796  00000+0  12764-2 0  9998,2 45701  53.1562  32.7781 0002777 126.5306 233.5952 15.32753540331130
STARLINK-1407,45703,53.0273,0.0004366,15.72009155,350.2165867345793,356.0943513185339,1 45703U 20035AY  26146.65613513  .00063940  00000+0  47991-3 0  9992,2 45703  53.0273 292.0551 0004366   3.2307 356.8738 15.72009155332518
STARLINK-1411,45706,53.0318,0.0004669,15.84449232,314.7496461509745,321.00238310403347,1 45706U 20035BB  26147.00002315  .00251799  00000+0  10503-2 0  9996,2 45706  53.0318 313.0114 0004669 292.7835 312.9043 15.84449232  5805
STARLINK-1423,45710,53.0451,0.0006861,15.67597121,361.1527902010748,370.4067928223867,1 45710U 20035BF  26146.88196972  .00058353  00000+0  52618-3 0  9994,2 45710  53.0451   0.3941 0006861  68.9616 291.2133 15.67597121331564
STARLINK-1433,45711,53.0446,0.0006834,15.67155253,362.43772910201733,371.65704712369006,1 45711U 20035BG  26146.86417699  .00055138  00000+0  50666-3 0  9994,2 45711  53.0446 359.0449 0006834  73.6116 286.5651 15.67155253331584
STARLINK-1434,45712,53.0523,0.0003219,15.33129316,464.2793060768299,468.68587216830747,1 45712U 20035BH  26146.94416595 -.00017522  00000+0 -52952-3 0  9995,2 45712  53.0523  15.6215 0003219 113.0700 247.0640 15.33129316331370
STARLINK-1465,45731,53.0439,0.0001299,15.64705532,373.208664178308,374.96289165601047,1 45731U 20038B   26147.00002315  .00008274  00000+0  89134-4 0  9993,2 45731  53.0439 203.7852 0001299  71.5597 348.0822 15.64705532  5963
STARLINK-1471,45735,53.0452,0.0003244,15.52760961,406.4674193010069,410.8706990722076,1 45735U 20038F   26146.35912425  .00030032  00000+0  48296-3 0  9996,2 45735  53.0452 128.7406 0003244  81.7103 278.4274 15.52760961329589
STARLINK-1480,45741,53.0482,0.0005975,15.63679821,373.00202882288886,381.07446324189823,1 45741U 20038M   26146.45322277  .00077211  00000+0  81057-3 0  9996,2 45741  53.0482 200.0532 0005975 352.5014   7.5909 15.63679821328598
STARLINK-1500,45744,53.0345,0.0002132,15.38541217,448.96643863696954,451.87813631714926,1 45744U 20038Q   26146.39168872  .00024837  00000+0  65132-3 0  9993,2 45744  53.0345 187.1349 0002132  96.1259 263.9987 15.38541217328766
STARLINK-1504,45746,53.0188,0.0003736,15.58102993,390.61783269569514,395.677336537321,1 45746U 20038S   26146.92956954  .00034686  00000+0  45728-3 0  9992,2 45746  53.0188 123.2225 0003736  64.7127 295.4271 15.58102993329698
STARLINK-1506,45747,53.0762,0.0003112,15.28042524,479.52971192807036,483.79925237055977,1 45747U 20038T   26146.53480717  .00005609  00000+0  21488-3 0  9999,2 45747  53.0762 201.7082 0003112 120.6730 239.4576 15.28042524328583
STARLINK-1464,45751,53.0459,0.0004063,15.53351094,404.19325426261366,409.7068159873561,1 45751U 20038X   26146.51987105  .00035680  00000+0  55989-3 0  9990,2 45751  53.0459 191.8325 0004063   2.1903 357.9123 15.53351094328714
STARLINK-1477,45754,53.0493,9.05e-05,15.18244407,510.52288231591774,511.76984260452264,1 45754U 20038AA  26146.60421352  .00018915  00000+0  92540-3 0  9996,2 45754  53.0493 217.7207 0000905 314.8523  45.2398 15.18244407328355
STARLINK-1478,45755,53.0448,0.0004656,15.66806529,364.9071772491998,371.1892249084449,1 45755U 20038AB  26146.51944312  .00047086  00000+0  44026-3 0  9990,2 45755  53.0448 177.8335 0004656  30.1843 329.9440 15.66806529328895
STARLINK-1493,45759,53.0465,0.000751,15.6301055,373.8918719539206,384.04104134580757,1 45759U 20038AF  26146.89840273  .00079417  00000+0  85507-3 0  9998,2 45759  53.0465 185.3494 0007510 350.3512   9.7356 15.63010550328820
STARLINK-1494,45760,53.0381,0.0004282,15.98908722,274.5954128299927,280.29525354013276,1 45760U 20038AG  26147.00002315  .00310297  51002-4  63418-3 0  9995,2 45760  53.0381 116.0873 0004282  50.5056 119.1391 15.98908722  6032
STARLINK-1502,45764,53.0467,0.0006888,15.59378301,384.7937191427163,394.1167542079611,1 45764U 20038AL  26146.53823592  .00053848  00000+0  67108-3 0  9997,2 45764  53.0467 190.5948 0006888 329.0872  30.9733 15.59378301328730
STARLINK-1470,45772,53.0433,0.0003997,15.34150448,460.71048153300853,466.1796422332782,1 45772U 20038AU  26146.47222940  .00028257  00000+0  85080-3 0  9994,2 45772  53.0433 171.4512 0003997 356.7224   3.3750 15.34150448328997
STARLINK-1482,45773,53.1576,0.0004996,15.36626069,452.6805004901835,459.5092649874159,1 45773U 20038AV  26146.50226421  .00021431  00000+0  59945-3 0  9995,2 45773  53.1576 187.8013 0004996 349.0515  11.0379 15.36626069328781
STARLINK-1496,45780,53.0446,0.0007916,15.60627194,380.489873797017,391.1986088983176,1 45780U 20038BC  26146.42119296  .00064654  00000+0  76580-3 0  9993,2 45780  53.0446 162.1203 0007916  34.2126 325.9395 15.60627194329106
STARLINK-1513,45786,53.1578,0.0001401,15.31713674,469.739712090035,471.6587560028156,1 45786U 20038BJ  26146.50494732  .00002498  00000+0  92206-4 0  9991,2 45786  53.1578 189.2639 0001401  82.9877 277.1283 15.31713674328760
STARLINK-1522,46027,53.0613,0.0003204,15.1242109,526.606044522553,531.0320219486512,1 46027U 20055A   26146.34143412  .00018604  00000+0  10728-2 0  9990,2 46027  53.0613 135.5379 0003204  11.8752 348.2315 15.12421090320629
STARLINK-1523,46028,53.1605,0.0001433,15.30187005,474.2717795098233,476.23596133328465,1 46028U 20055B   26146.96530740  .00000438  00000+0  26910-4 0  9991,2 46028  53.1605 123.1217 0001433  98.8202 261.2961 15.30187005320887
STARLINK-1526,46029,53.1613,0.0001265,15.30210148,474.3178242841268,476.0517146918064,1 46029U 20055C   26146.24050712  .00001702  00000+0  69548-4 0  9998,2 46029  53.1613 126.4986 0001265  97.9083 262.2061 15.30210148320760
STARLINK-1555,46032,53.1581,0.0001161,15.30211917,474.3838175920855,475.9751576805147,1 46032U 20055F   26146.35533771  .00003673  00000+0  13603-3 0  9994,2 46032  53.1581 125.9463 0001161  85.1123 275.0011 15.30211917320785
STARLINK-1556,46033,53.1595,0.0001357,15.30188691,474.3188318048451,476.17884072080597,1 46033U 20055G   26146.92633369  .00001466  00000+0  61640-4 0  9995,2 46033  53.1595 123.3128 0001357  89.7360 270.3796 15.30188691320848
STARLINK-1557,46034,53.1609,0.0001389,15.30213147,474.22388997811595,476.12774027815885,1 46034U 20055H   26146.34164058  .00003441  00000+0  12819-3 0  9994,2 46034  53.1609 126.0251 0001389  89.1371 270.9789 15.30213147320756
STARLINK-1558,46035,53.1607,0.0001164,15.30203377,474.407257317368,476.0027153317851,1 46035U 20055J   26146.21839064  .00001877  00000+0  75478-4 0  9999,2 46035  53.1607 126.5978 0001164  84.2598 275.8535 15.30203377320762
STARLINK-1560,46036,53.1584,0.0001448,15.30190493,474.25108626465135,476.23582524463654,1 46036U 20055K   26146.92316661  .00001771  00000+0  71915-4 0  9996,2 46036  53.1584 123.3306 0001448  83.5462 276.5704 15.30190493320876
STARLINK-1569,46039,53.1601,0.0001232,15.30220059,474.3108519189682,475.9995031115086,1 46039U 20055N   26146.35217043  .00000162  00000+0  17579-4 0  9999,2 46039  53.1601 125.9659 0001232  90.6746 269.4396 15.30220059320772
STARLINK-1582,46043,53.1585,0.000141,15.31717635,469.72174246849863,471.65311095683137,1 46043U 20055S   26146.31646662  .00002551  00000+0  93893-4 0  9990,2 46043  53.1585 125.6706 0001410  98.8316 261.2845 15.31717635320770
STARLINK-1591,46045,53.1597,0.0001664,15.3018622,474.11580969336956,476.3966189550956,1 46045U 20055U   26146.31952724 -.00003236  00000+0 -97218-4 0  9999,2 46045  53.1597 126.1215 0001664  77.7612 282.3575 15.30186220320753
STARLINK-1524,46047,53.1613,0.0001135,15.31715692,469.91587635973156,471.4705608193517,1 46047U 20055W   26146.28579056  .00000449  00000+0  26220-4 0  9996,2 46047  53.1613 113.1123 0001135 104.5882 255.5246 15.31715692320950
STARLINK-1527,46048,53.1586,0.0001939,15.31703267,469.40226112492564,472.05825184699097,1 46048U 20055X   26146.86839297 -.00000632  00000+0 -85989-5 0  9991,2 46048  53.1586 110.3764 0001939 113.4490 246.6715 15.31703267321011
STARLINK-1540,46051,53.1601,0.0001453,15.31726704,469.6652628864849,471.65552340893373,1 46051U 20055AA  26146.33243409  .00008214  00000+0  27593-3 0  9998,2 46051  53.1601 113.0847 0001453  93.0505 267.0662 15.31726704320979
STARLINK-1541,46052,53.1583,0.0002079,15.79690614,329.92163793330747,332.7114287124623,1 46052U 20055AB  26147.00002315  .00082381  00000+0  44006-3 0  9998,2 46052  53.1583  98.1161 0002079 133.6542 206.3213 15.79690614  5866
STARLINK-1543,46053,53.1587,0.0001329,15.31701099,469.82650384851695,471.6469344830721,1 46053U 20055AC  26146.89170146  .00001842  00000+0  71102-4 0  9994,2 46053  53.1587 110.2894 0001329  74.3102 285.8046 15.31701099321056
STARLINK-1548,46054,53.1571,0.0001101,15.31696525,469.99629154172726,471.5044165370864,1 46054U 20055AD  26146.90569644 -.00000784  00000+0 -13520-4 0  9998,2 46054  53.1571 110.2966 0001101  81.2646 278.8480 15.31696525321059
